<?xml version="1.0" encoding="UTF-8"?>
<kml xmlns="http://www.opengis.net/kml/2.2">
<Document>
  <name>Paradas Fuera de Toda Ruta (33)</name>
  <description>Paradas a más de 20 metros de cualquier ruta conocida del sistema.</description>
  <Style id="style_problematicas_fuera_de_ruta">
    <IconStyle>
      <color>ff2626dc</color>
      <scale>1.0</scale>
      <Icon>
        <href>http://maps.google.com/mapfiles/kml/paddle/wht-blank.png</href>
      </Icon>
    </IconStyle>
  </Style>
    <Placemark>
      <name>PE-19</name>
      <description><![CDATA[Capa: Consolidado<br/>GTFS cercano: Avenida José Faustino Sánchez Carrión y Jirón Brasil<br/>Distancia: 167.7m]]></description>
      <styleUrl>#style_problematicas_fuera_de_ruta</styleUrl>
      <Point>
        <coordinates>-79.06937411599995,-8.051161129999969,0</coordinates>
      </Point>
    </Placemark>
    <Placemark>
      <name>PE-20</name>
      <description><![CDATA[Capa: Consolidado<br/>GTFS cercano: Avenida José Faustino Sánchez Carrión<br/>Distancia: 104.2m]]></description>
      <styleUrl>#style_problematicas_fuera_de_ruta</styleUrl>
      <Point>
        <coordinates>-79.07079378999998,-8.053801316999966,0</coordinates>
      </Point>
    </Placemark>
    <Placemark>
      <name>PE-21</name>
      <description><![CDATA[Capa: Consolidado<br/>GTFS cercano: Avenida José Faustino Sánchez Carrión<br/>Distancia: 419.9m]]></description>
      <styleUrl>#style_problematicas_fuera_de_ruta</styleUrl>
      <Point>
        <coordinates>-79.07210802499998,-8.056347961999961,0</coordinates>
      </Point>
    </Placemark>
    <Placemark>
      <name>PE-236</name>
      <description><![CDATA[Capa: Consolidado<br/>GTFS cercano: PE-276<br/>Distancia: 392.8m]]></description>
      <styleUrl>#style_problematicas_fuera_de_ruta</styleUrl>
      <Point>
        <coordinates>-79.05737732999995,-8.04598928699994,0</coordinates>
      </Point>
    </Placemark>
    <Placemark>
      <name>PH-105</name>
      <description><![CDATA[Capa: Consolidado<br/>GTFS cercano: Avenida Miguel Grau<br/>Distancia: 156.0m]]></description>
      <styleUrl>#style_problematicas_fuera_de_ruta</styleUrl>
      <Point>
        <coordinates>-79.06882948699996,-8.011867977999941,0</coordinates>
      </Point>
    </Placemark>
    <Placemark>
      <name>PH-134</name>
      <description><![CDATA[Capa: Consolidado<br/>GTFS cercano: PH-135<br/>Distancia: 483.8m]]></description>
      <styleUrl>#style_problematicas_fuera_de_ruta</styleUrl>
      <Point>
        <coordinates>-79.05996179499994,-8.03799254699993,0</coordinates>
      </Point>
    </Placemark>
    <Placemark>
      <name>PH-16</name>
      <description><![CDATA[Capa: Consolidado<br/>GTFS cercano: PH-15<br/>Distancia: 792.9m]]></description>
      <styleUrl>#style_problematicas_fuera_de_ruta</styleUrl>
      <Point>
        <coordinates>-79.10534182099997,-8.09273066299994,0</coordinates>
      </Point>
    </Placemark>
    <Placemark>
      <name>PP-160</name>
      <description><![CDATA[Capa: Consolidado<br/>GTFS cercano: Calle Andres Razuri y Calle San Martin<br/>Distancia: 193.6m]]></description>
      <styleUrl>#style_problematicas_fuera_de_ruta</styleUrl>
      <Point>
        <coordinates>-78.99415213699996,-8.066611829999943,0</coordinates>
      </Point>
    </Placemark>
    <Placemark>
      <name>PL-10</name>
      <description><![CDATA[Capa: LAREDO<br/>GTFS cercano: PL-50<br/>Distancia: 309.8m]]></description>
      <styleUrl>#style_problematicas_fuera_de_ruta</styleUrl>
      <Point>
        <coordinates>-78.9582071306674,-8.088633871447582,0</coordinates>
      </Point>
    </Placemark>
    <Placemark>
      <name>PL-12</name>
      <description><![CDATA[Capa: LAREDO<br/>GTFS cercano: Avenida Luis Condemarín y Avenida Carlos Larco Cox<br/>Distancia: 132.0m]]></description>
      <styleUrl>#style_problematicas_fuera_de_ruta</styleUrl>
      <Point>
        <coordinates>-78.96149738284053,-8.084476421071155,0</coordinates>
      </Point>
    </Placemark>
    <Placemark>
      <name>PL-2</name>
      <description><![CDATA[Capa: LAREDO<br/>GTFS cercano: PL-47<br/>Distancia: 240.2m]]></description>
      <styleUrl>#style_problematicas_fuera_de_ruta</styleUrl>
      <Point>
        <coordinates>-78.95904944597186,-8.090295423802589,0</coordinates>
      </Point>
    </Placemark>
    <Placemark>
      <name>PL-3</name>
      <description><![CDATA[Capa: LAREDO<br/>GTFS cercano: PL-24<br/>Distancia: 221.4m]]></description>
      <styleUrl>#style_problematicas_fuera_de_ruta</styleUrl>
      <Point>
        <coordinates>-78.9497272738537,-8.077213098483597,0</coordinates>
      </Point>
    </Placemark>
    <Placemark>
      <name>PL-36</name>
      <description><![CDATA[Capa: LAREDO<br/>GTFS cercano: PL-47<br/>Distancia: 234.9m]]></description>
      <styleUrl>#style_problematicas_fuera_de_ruta</styleUrl>
      <Point>
        <coordinates>-78.95920823445438,-8.09120168764514,0</coordinates>
      </Point>
    </Placemark>
    <Placemark>
      <name>PL-52</name>
      <description><![CDATA[Capa: LAREDO<br/>GTFS cercano: PL-67<br/>Distancia: 142.2m]]></description>
      <styleUrl>#style_problematicas_fuera_de_ruta</styleUrl>
      <Point>
        <coordinates>-78.95688084924227,-8.081681460594796,0</coordinates>
      </Point>
    </Placemark>
    <Placemark>
      <name>PL-98</name>
      <description><![CDATA[Capa: LAREDO<br/>GTFS cercano: PL-106<br/>Distancia: 56.4m]]></description>
      <styleUrl>#style_problematicas_fuera_de_ruta</styleUrl>
      <Point>
        <coordinates>-78.9869553761363,-8.107589942228104,0</coordinates>
      </Point>
    </Placemark>
    <Placemark>
      <name>PM-118</name>
      <description><![CDATA[Capa: Moche<br/>GTFS cercano: PM-117<br/>Distancia: 94.8m]]></description>
      <styleUrl>#style_problematicas_fuera_de_ruta</styleUrl>
      <Point>
        <coordinates>-79.00367298119096,-8.120062145553536,0</coordinates>
      </Point>
    </Placemark>
    <Placemark>
      <name>PM-123</name>
      <description><![CDATA[Capa: Moche<br/>GTFS cercano: PM-121<br/>Distancia: 127.2m]]></description>
      <styleUrl>#style_problematicas_fuera_de_ruta</styleUrl>
      <Point>
        <coordinates>-79.01915706225888,-8.134886683660813,0</coordinates>
      </Point>
    </Placemark>
    <Placemark>
      <name>PM-13</name>
      <description><![CDATA[Capa: Moche<br/>GTFS cercano: PM-86<br/>Distancia: 409.1m]]></description>
      <styleUrl>#style_problematicas_fuera_de_ruta</styleUrl>
      <Point>
        <coordinates>-79.01037376730777,-8.184296531788949,0</coordinates>
      </Point>
    </Placemark>
    <Placemark>
      <name>PM-49</name>
      <description><![CDATA[Capa: Moche<br/>GTFS cercano: PM-43<br/>Distancia: 125.8m]]></description>
      <styleUrl>#style_problematicas_fuera_de_ruta</styleUrl>
      <Point>
        <coordinates>-79.01077500705118,-8.16497026611034,0</coordinates>
      </Point>
    </Placemark>
    <Placemark>
      <name>PM-75</name>
      <description><![CDATA[Capa: Moche<br/>GTFS cercano: PM-33<br/>Distancia: 407.4m]]></description>
      <styleUrl>#style_problematicas_fuera_de_ruta</styleUrl>
      <Point>
        <coordinates>-78.99801010017882,-8.14069862888839,0</coordinates>
      </Point>
    </Placemark>
    <Placemark>
      <name>PM-79</name>
      <description><![CDATA[Capa: Moche<br/>GTFS cercano: PM-78<br/>Distancia: 267.4m]]></description>
      <styleUrl>#style_problematicas_fuera_de_ruta</styleUrl>
      <Point>
        <coordinates>-78.9971237696658,-8.131978535680771,0</coordinates>
      </Point>
    </Placemark>
    <Placemark>
      <name>PM-99</name>
      <description><![CDATA[Capa: Moche<br/>GTFS cercano: PS-64<br/>Distancia: 90.2m]]></description>
      <styleUrl>#style_problematicas_fuera_de_ruta</styleUrl>
      <Point>
        <coordinates>-78.9788048130795,-8.187970604405741,0</coordinates>
      </Point>
    </Placemark>
    <Placemark>
      <name>PM-SC-02</name>
      <description><![CDATA[Capa: Moche<br/>GTFS cercano: PM-121<br/>Distancia: 641.5m]]></description>
      <styleUrl>#style_problematicas_fuera_de_ruta</styleUrl>
      <Point>
        <coordinates>-79.01432253258189,-8.137453406125088,0</coordinates>
      </Point>
    </Placemark>
    <Placemark>
      <name>PM-SC5</name>
      <description><![CDATA[Capa: Moche<br/>GTFS cercano: PM-93<br/>Distancia: 74.2m]]></description>
      <styleUrl>#style_problematicas_fuera_de_ruta</styleUrl>
      <Point>
        <coordinates>-78.9859706931058,-8.183088228117057,0</coordinates>
      </Point>
    </Placemark>
    <Placemark>
      <name>PS-16</name>
      <description><![CDATA[Capa: Paraderos_Salaverry<br/>GTFS cercano: PS-56<br/>Distancia: 868.8m]]></description>
      <styleUrl>#style_problematicas_fuera_de_ruta</styleUrl>
      <Point>
        <coordinates>-78.98674757166434,-8.201101976890724,0</coordinates>
      </Point>
    </Placemark>
    <Placemark>
      <name>PS-17</name>
      <description><![CDATA[Capa: Paraderos_Salaverry<br/>GTFS cercano: PS-51<br/>Distancia: 497.5m]]></description>
      <styleUrl>#style_problematicas_fuera_de_ruta</styleUrl>
      <Point>
        <coordinates>-78.98474104336047,-8.204651064751591,0</coordinates>
      </Point>
    </Placemark>
    <Placemark>
      <name>PS-30</name>
      <description><![CDATA[Capa: Paraderos_Salaverry<br/>GTFS cercano: PS-29<br/>Distancia: 354.6m]]></description>
      <styleUrl>#style_problematicas_fuera_de_ruta</styleUrl>
      <Point>
        <coordinates>-78.9764171469118,-8.189927177377594,0</coordinates>
      </Point>
    </Placemark>
    <Placemark>
      <name>PS-5</name>
      <description><![CDATA[Capa: Paraderos_Salaverry<br/>GTFS cercano: PM-100<br/>Distancia: 68.2m]]></description>
      <styleUrl>#style_problematicas_fuera_de_ruta</styleUrl>
      <Point>
        <coordinates>-78.9816137806032,-8.187065912166437,0</coordinates>
      </Point>
    </Placemark>
    <Placemark>
      <name>PS-62</name>
      <description><![CDATA[Capa: Paraderos_Salaverry<br/>GTFS cercano: PS-29<br/>Distancia: 58.4m]]></description>
      <styleUrl>#style_problematicas_fuera_de_ruta</styleUrl>
      <Point>
        <coordinates>-78.97460416294365,-8.19239818131062,0</coordinates>
      </Point>
    </Placemark>
    <Placemark>
      <name>PS-63</name>
      <description><![CDATA[Capa: Paraderos_Salaverry<br/>GTFS cercano: PS-64<br/>Distancia: 343.2m]]></description>
      <styleUrl>#style_problematicas_fuera_de_ruta</styleUrl>
      <Point>
        <coordinates>-78.97734504092816,-8.190383821937157,0</coordinates>
      </Point>
    </Placemark>
    <Placemark>
      <name>PESQT-408</name>
      <description><![CDATA[Capa: Puntos_Paraderos<br/>GTFS cercano: PLUN-291<br/>Distancia: 597.5m]]></description>
      <styleUrl>#style_problematicas_fuera_de_ruta</styleUrl>
      <Point>
        <coordinates>-79.00585558243753,-8.089985991405921,0</coordinates>
      </Point>
    </Placemark>
    <Placemark>
      <name>PROSAC-441</name>
      <description><![CDATA[Capa: Puntos_Paraderos<br/>GTFS cercano: CEV-189<br/>Distancia: 319.5m]]></description>
      <styleUrl>#style_problematicas_fuera_de_ruta</styleUrl>
      <Point>
        <coordinates>-79.00228321856864,-8.08763718107549,0</coordinates>
      </Point>
    </Placemark>
    <Placemark>
      <name>PROSAC-442</name>
      <description><![CDATA[Capa: Puntos_Paraderos<br/>GTFS cercano: CEV-187<br/>Distancia: 419.5m]]></description>
      <styleUrl>#style_problematicas_fuera_de_ruta</styleUrl>
      <Point>
        <coordinates>-79.00316130783946,-8.090827124914474,0</coordinates>
      </Point>
    </Placemark>
</Document>
</kml>