<?xml version="1.0" encoding="UTF-8"?>
<kml xmlns="http://www.opengis.net/kml/2.2">
<Document>
  <name>Paradas Duplicadas (74)</name>
  <description>Paradas a menos de 20m de otra parada, en el mismo lado de la calle. Se conservó una de cada par.</description>
  <Style id="style_problematicas_duplicadas">
    <IconStyle>
      <color>ff9948ec</color>
      <scale>1.0</scale>
      <Icon>
        <href>http://maps.google.com/mapfiles/kml/paddle/wht-blank.png</href>
      </Icon>
    </IconStyle>
  </Style>
    <Placemark>
      <name>PE-222</name>
      <description><![CDATA[Capa: Consolidado<br/>Duplicado de: PE-85<br/>Distancia entre ambos: 12.8m]]></description>
      <styleUrl>#style_problematicas_duplicadas</styleUrl>
      <Point>
        <coordinates>-79.05265308899999,-8.075489923999953,0</coordinates>
      </Point>
    </Placemark>
    <Placemark>
      <name>AVOC-452</name>
      <description><![CDATA[Capa: Puntos_Paraderos<br/>Duplicado de: AVOC-453<br/>Distancia entre ambos: 15.1m]]></description>
      <styleUrl>#style_problematicas_duplicadas</styleUrl>
      <Point>
        <coordinates>-79.02451931148909,-8.091412945016373,0</coordinates>
      </Point>
    </Placemark>
    <Placemark>
      <name>AVOC-453</name>
      <description><![CDATA[Capa: Puntos_Paraderos<br/>Duplicado de: AVOC-452<br/>Distancia entre ambos: 15.1m]]></description>
      <styleUrl>#style_problematicas_duplicadas</styleUrl>
      <Point>
        <coordinates>-79.0245237537281,-8.09154943008169,0</coordinates>
      </Point>
    </Placemark>
    <Placemark>
      <name>Prolongación Avenida 12 de Noviembre</name>
      <description><![CDATA[Capa: <br/>Duplicado de: Prolongación Avenida 12 de Noviembre<br/>Distancia entre ambos: 8.6m]]></description>
      <styleUrl>#style_problematicas_duplicadas</styleUrl>
      <Point>
        <coordinates>-79.0225101,-8.0637021,0</coordinates>
      </Point>
    </Placemark>
    <Placemark>
      <name>PL-40</name>
      <description><![CDATA[Capa: LAREDO<br/>Duplicado de: PL-18<br/>Distancia entre ambos: 18.3m]]></description>
      <styleUrl>#style_problematicas_duplicadas</styleUrl>
      <Point>
        <coordinates>-78.95424854395837,-8.082305168143714,0</coordinates>
      </Point>
    </Placemark>
    <Placemark>
      <name>Prolongación Avenida 12 de Noviembre</name>
      <description><![CDATA[Capa: <br/>Duplicado de: Prolongación Avenida 12 de Noviembre<br/>Distancia entre ambos: 8.6m]]></description>
      <styleUrl>#style_problematicas_duplicadas</styleUrl>
      <Point>
        <coordinates>-79.0225872,-8.0637159,0</coordinates>
      </Point>
    </Placemark>
    <Placemark>
      <name>PE-245</name>
      <description><![CDATA[Capa: Puntos_Paraderos<br/>Duplicado de: AMN-16<br/>Distancia entre ambos: 19.5m]]></description>
      <styleUrl>#style_problematicas_duplicadas</styleUrl>
      <Point>
        <coordinates>-79.01383951712717,-8.099314046910184,0</coordinates>
      </Point>
    </Placemark>
    <Placemark>
      <name>Avenida las Magnolias y Calle San Nicolas</name>
      <description><![CDATA[Capa: <br/>Duplicado de: Avenida las Magnolias y Calle San Nicolas<br/>Distancia entre ambos: 9.1m]]></description>
      <styleUrl>#style_problematicas_duplicadas</styleUrl>
      <Point>
        <coordinates>-79.0163343,-8.0710228,0</coordinates>
      </Point>
    </Placemark>
    <Placemark>
      <name>Avenida las Magnolias y Calle San Nicolas</name>
      <description><![CDATA[Capa: <br/>Duplicado de: Avenida las Magnolias y Calle San Nicolas<br/>Distancia entre ambos: 9.1m]]></description>
      <styleUrl>#style_problematicas_duplicadas</styleUrl>
      <Point>
        <coordinates>-79.0163485,-8.0709414,0</coordinates>
      </Point>
    </Placemark>
    <Placemark>
      <name>PFM-57</name>
      <description><![CDATA[Capa: Consolidado<br/>Duplicado de: PFM-58<br/>Distancia entre ambos: 10.0m]]></description>
      <styleUrl>#style_problematicas_duplicadas</styleUrl>
      <Point>
        <coordinates>-79.01710327899997,-8.076215641999966,0</coordinates>
      </Point>
    </Placemark>
    <Placemark>
      <name>PFM-58</name>
      <description><![CDATA[Capa: Consolidado<br/>Duplicado de: PFM-57<br/>Distancia entre ambos: 10.0m]]></description>
      <styleUrl>#style_problematicas_duplicadas</styleUrl>
      <Point>
        <coordinates>-79.01715289099997,-8.076291829999946,0</coordinates>
      </Point>
    </Placemark>
    <Placemark>
      <name>Carretera Panamericana Norte</name>
      <description><![CDATA[Capa: <br/>Duplicado de: Carretera Panamericana Norte<br/>Distancia entre ambos: 9.7m]]></description>
      <styleUrl>#style_problematicas_duplicadas</styleUrl>
      <Point>
        <coordinates>-79.0857735,-8.0467316,0</coordinates>
      </Point>
    </Placemark>
    <Placemark>
      <name>Carretera Panamericana Norte</name>
      <description><![CDATA[Capa: <br/>Duplicado de: Carretera Panamericana Norte<br/>Distancia entre ambos: 9.7m]]></description>
      <styleUrl>#style_problematicas_duplicadas</styleUrl>
      <Point>
        <coordinates>-79.0856919,-8.0467635,0</coordinates>
      </Point>
    </Placemark>
    <Placemark>
      <name>PAT-78</name>
      <description><![CDATA[Capa: Consolidado<br/>Duplicado de: PAT-79<br/>Distancia entre ambos: 11.0m]]></description>
      <styleUrl>#style_problematicas_duplicadas</styleUrl>
      <Point>
        <coordinates>-79.02056861899996,-8.068163847999926,0</coordinates>
      </Point>
    </Placemark>
    <Placemark>
      <name>PAT-79</name>
      <description><![CDATA[Capa: Consolidado<br/>Duplicado de: PAT-78<br/>Distancia entre ambos: 11.0m]]></description>
      <styleUrl>#style_problematicas_duplicadas</styleUrl>
      <Point>
        <coordinates>-79.02048376399995,-8.068111690999956,0</coordinates>
      </Point>
    </Placemark>
    <Placemark>
      <name>PFM-74</name>
      <description><![CDATA[Capa: Consolidado<br/>Duplicado de: PFM-75<br/>Distancia entre ambos: 10.4m]]></description>
      <styleUrl>#style_problematicas_duplicadas</styleUrl>
      <Point>
        <coordinates>-79.02140653999999,-8.084097458999963,0</coordinates>
      </Point>
    </Placemark>
    <Placemark>
      <name>PFM-75</name>
      <description><![CDATA[Capa: Consolidado<br/>Duplicado de: PFM-74<br/>Distancia entre ambos: 10.4m]]></description>
      <styleUrl>#style_problematicas_duplicadas</styleUrl>
      <Point>
        <coordinates>-79.02146749399998,-8.084025973999928,0</coordinates>
      </Point>
    </Placemark>
    <Placemark>
      <name>PH-35</name>
      <description><![CDATA[Capa: Consolidado<br/>Duplicado de: PH-4<br/>Distancia entre ambos: 12.3m]]></description>
      <styleUrl>#style_problematicas_duplicadas</styleUrl>
      <Point>
        <coordinates>-79.11495270399996,-8.081667466999932,0</coordinates>
      </Point>
    </Placemark>
    <Placemark>
      <name>PE-287</name>
      <description><![CDATA[Capa: Consolidado<br/>Duplicado de: PE-291<br/>Distancia entre ambos: 18.4m]]></description>
      <styleUrl>#style_problematicas_duplicadas</styleUrl>
      <Point>
        <coordinates>-79.03751287599994,-8.08040633099995,0</coordinates>
      </Point>
    </Placemark>
    <Placemark>
      <name>PH-4</name>
      <description><![CDATA[Capa: Consolidado<br/>Duplicado de: PH-35<br/>Distancia entre ambos: 12.3m]]></description>
      <styleUrl>#style_problematicas_duplicadas</styleUrl>
      <Point>
        <coordinates>-79.11505339599995,-8.081620313999963,0</coordinates>
      </Point>
    </Placemark>
    <Placemark>
      <name>PE-291</name>
      <description><![CDATA[Capa: Consolidado<br/>Duplicado de: PE-287<br/>Distancia entre ambos: 18.4m]]></description>
      <styleUrl>#style_problematicas_duplicadas</styleUrl>
      <Point>
        <coordinates>-79.03738682299996,-8.080297918999975,0</coordinates>
      </Point>
    </Placemark>
    <Placemark>
      <name>PP-31</name>
      <description><![CDATA[Capa: Consolidado<br/>Duplicado de: PP-120<br/>Distancia entre ambos: 10.5m]]></description>
      <styleUrl>#style_problematicas_duplicadas</styleUrl>
      <Point>
        <coordinates>-78.99983188099998,-8.077897769999936,0</coordinates>
      </Point>
    </Placemark>
    <Placemark>
      <name>PE-31</name>
      <description><![CDATA[Capa: Consolidado<br/>Duplicado de: PE-157<br/>Distancia entre ambos: 11.1m]]></description>
      <styleUrl>#style_problematicas_duplicadas</styleUrl>
      <Point>
        <coordinates>-79.07695485899995,-8.065914603999943,0</coordinates>
      </Point>
    </Placemark>
    <Placemark>
      <name>Jirón las Ficus y Calle los Girasoles</name>
      <description><![CDATA[Capa: <br/>Duplicado de: Calle los Girasoles<br/>Distancia entre ambos: 11.4m]]></description>
      <styleUrl>#style_problematicas_duplicadas</styleUrl>
      <Point>
        <coordinates>-79.0530435,-8.1343542,0</coordinates>
      </Point>
    </Placemark>
    <Placemark>
      <name>PE-215</name>
      <description><![CDATA[Capa: Consolidado<br/>Duplicado de: PE-95<br/>Distancia entre ambos: 12.7m]]></description>
      <styleUrl>#style_problematicas_duplicadas</styleUrl>
      <Point>
        <coordinates>-79.05984812799994,-8.074630320999972,0</coordinates>
      </Point>
    </Placemark>
    <Placemark>
      <name>PP-116</name>
      <description><![CDATA[Capa: Consolidado<br/>Duplicado de: PP-117<br/>Distancia entre ambos: 11.8m]]></description>
      <styleUrl>#style_problematicas_duplicadas</styleUrl>
      <Point>
        <coordinates>-79.00192523499999,-8.078690974999972,0</coordinates>
      </Point>
    </Placemark>
    <Placemark>
      <name>PP-117</name>
      <description><![CDATA[Capa: Consolidado<br/>Duplicado de: PP-116<br/>Distancia entre ambos: 11.8m]]></description>
      <styleUrl>#style_problematicas_duplicadas</styleUrl>
      <Point>
        <coordinates>-79.00184221899997,-8.078623138999944,0</coordinates>
      </Point>
    </Placemark>
    <Placemark>
      <name>PP-93</name>
      <description><![CDATA[Capa: Consolidado<br/>Duplicado de: PP-94<br/>Distancia entre ambos: 11.8m]]></description>
      <styleUrl>#style_problematicas_duplicadas</styleUrl>
      <Point>
        <coordinates>-79.00397180799996,-8.07921803399995,0</coordinates>
      </Point>
    </Placemark>
    <Placemark>
      <name>PP-121</name>
      <description><![CDATA[Capa: Consolidado<br/>Duplicado de: PP-30<br/>Distancia entre ambos: 19.8m]]></description>
      <styleUrl>#style_problematicas_duplicadas</styleUrl>
      <Point>
        <coordinates>-79.00344278299997,-8.07855686299996,0</coordinates>
      </Point>
    </Placemark>
    <Placemark>
      <name>PP-94</name>
      <description><![CDATA[Capa: Consolidado<br/>Duplicado de: PP-93<br/>Distancia entre ambos: 11.8m]]></description>
      <styleUrl>#style_problematicas_duplicadas</styleUrl>
      <Point>
        <coordinates>-79.00400245299994,-8.079115893999926,0</coordinates>
      </Point>
    </Placemark>
    <Placemark>
      <name>PH-156</name>
      <description><![CDATA[Capa: Consolidado<br/>Duplicado de: PH-157<br/>Distancia entre ambos: 11.8m]]></description>
      <styleUrl>#style_problematicas_duplicadas</styleUrl>
      <Point>
        <coordinates>-79.07295514299994,-8.040465964999953,0</coordinates>
      </Point>
    </Placemark>
    <Placemark>
      <name>PH-157</name>
      <description><![CDATA[Capa: Consolidado<br/>Duplicado de: PH-156<br/>Distancia entre ambos: 11.8m]]></description>
      <styleUrl>#style_problematicas_duplicadas</styleUrl>
      <Point>
        <coordinates>-79.07306173499995,-8.04045786699993,0</coordinates>
      </Point>
    </Placemark>
    <Placemark>
      <name>Calle los Girasoles</name>
      <description><![CDATA[Capa: <br/>Duplicado de: Jirón las Ficus y Calle los Girasoles<br/>Distancia entre ambos: 11.4m]]></description>
      <styleUrl>#style_problematicas_duplicadas</styleUrl>
      <Point>
        <coordinates>-79.0531214,-8.1342863,0</coordinates>
      </Point>
    </Placemark>
    <Placemark>
      <name>Avenida Libertad</name>
      <description><![CDATA[Capa: <br/>Duplicado de: Avenida Libertad y Calle Chanchani<br/>Distancia entre ambos: 8.5m]]></description>
      <styleUrl>#style_problematicas_duplicadas</styleUrl>
      <Point>
        <coordinates>-78.995111,-8.0894982,0</coordinates>
      </Point>
    </Placemark>
    <Placemark>
      <name>PH-160</name>
      <description><![CDATA[Capa: Consolidado<br/>Duplicado de: PH-161<br/>Distancia entre ambos: 11.7m]]></description>
      <styleUrl>#style_problematicas_duplicadas</styleUrl>
      <Point>
        <coordinates>-79.06168216199995,-8.03100133199996,0</coordinates>
      </Point>
    </Placemark>
    <Placemark>
      <name>PH-161</name>
      <description><![CDATA[Capa: Consolidado<br/>Duplicado de: PH-160<br/>Distancia entre ambos: 11.7m]]></description>
      <styleUrl>#style_problematicas_duplicadas</styleUrl>
      <Point>
        <coordinates>-79.06166362799996,-8.03110513799993,0</coordinates>
      </Point>
    </Placemark>
    <Placemark>
      <name>EV-539</name>
      <description><![CDATA[Capa: Puntos_Paraderos<br/>Duplicado de: EV-545<br/>Distancia entre ambos: 14.8m]]></description>
      <styleUrl>#style_problematicas_duplicadas</styleUrl>
      <Point>
        <coordinates>-79.00579490586895,-8.121105159270424,0</coordinates>
      </Point>
    </Placemark>
    <Placemark>
      <name>EV-545</name>
      <description><![CDATA[Capa: Puntos_Paraderos<br/>Duplicado de: EV-539<br/>Distancia entre ambos: 14.8m]]></description>
      <styleUrl>#style_problematicas_duplicadas</styleUrl>
      <Point>
        <coordinates>-79.00566860242444,-8.12115027454816,0</coordinates>
      </Point>
    </Placemark>
    <Placemark>
      <name>PH-107</name>
      <description><![CDATA[Capa: Consolidado<br/>Duplicado de: PH-142<br/>Distancia entre ambos: 14.9m]]></description>
      <styleUrl>#style_problematicas_duplicadas</styleUrl>
      <Point>
        <coordinates>-79.07267767399998,-8.016140201999974,0</coordinates>
      </Point>
    </Placemark>
    <Placemark>
      <name>PH-142</name>
      <description><![CDATA[Capa: Consolidado<br/>Duplicado de: PH-107<br/>Distancia entre ambos: 14.9m]]></description>
      <styleUrl>#style_problematicas_duplicadas</styleUrl>
      <Point>
        <coordinates>-79.07279805499996,-8.016078457999981,0</coordinates>
      </Point>
    </Placemark>
    <Placemark>
      <name>PP-21</name>
      <description><![CDATA[Capa: Consolidado<br/>Duplicado de: PP-89<br/>Distancia entre ambos: 12.2m]]></description>
      <styleUrl>#style_problematicas_duplicadas</styleUrl>
      <Point>
        <coordinates>-79.00654512999995,-8.079895595999972,0</coordinates>
      </Point>
    </Placemark>
    <Placemark>
      <name>Avenida Libertad y Calle Chanchani</name>
      <description><![CDATA[Capa: <br/>Duplicado de: Avenida Libertad<br/>Distancia entre ambos: 8.5m]]></description>
      <styleUrl>#style_problematicas_duplicadas</styleUrl>
      <Point>
        <coordinates>-78.9950362,-8.0895175,0</coordinates>
      </Point>
    </Placemark>
    <Placemark>
      <name>PE-54</name>
      <description><![CDATA[Capa: Consolidado<br/>Duplicado de: PE-183<br/>Distancia entre ambos: 14.5m]]></description>
      <styleUrl>#style_problematicas_duplicadas</styleUrl>
      <Point>
        <coordinates>-79.04710101699999,-8.069721492999975,0</coordinates>
      </Point>
    </Placemark>
    <Placemark>
      <name>PP-30</name>
      <description><![CDATA[Capa: Consolidado<br/>Duplicado de: PP-121<br/>Distancia entre ambos: 19.8m]]></description>
      <styleUrl>#style_problematicas_duplicadas</styleUrl>
      <Point>
        <coordinates>-79.00326313699998,-8.07855266799993,0</coordinates>
      </Point>
    </Placemark>
    <Placemark>
      <name>PE-157</name>
      <description><![CDATA[Capa: Consolidado<br/>Duplicado de: PE-31<br/>Distancia entre ambos: 11.1m]]></description>
      <styleUrl>#style_problematicas_duplicadas</styleUrl>
      <Point>
        <coordinates>-79.07696897899996,-8.06581521499993,0</coordinates>
      </Point>
    </Placemark>
    <Placemark>
      <name>PE-285</name>
      <description><![CDATA[Capa: Consolidado<br/>Duplicado de: PE-289<br/>Distancia entre ambos: 10.8m]]></description>
      <styleUrl>#style_problematicas_duplicadas</styleUrl>
      <Point>
        <coordinates>-79.04323741699994,-8.08364611899998,0</coordinates>
      </Point>
    </Placemark>
    <Placemark>
      <name>PE-289</name>
      <description><![CDATA[Capa: Consolidado<br/>Duplicado de: PE-285<br/>Distancia entre ambos: 10.8m]]></description>
      <styleUrl>#style_problematicas_duplicadas</styleUrl>
      <Point>
        <coordinates>-79.04315603999999,-8.083591486999978,0</coordinates>
      </Point>
    </Placemark>
    <Placemark>
      <name>PE-210</name>
      <description><![CDATA[Capa: Consolidado<br/>Duplicado de: PE-92<br/>Distancia entre ambos: 17.9m]]></description>
      <styleUrl>#style_problematicas_duplicadas</styleUrl>
      <Point>
        <coordinates>-79.06060083599994,-8.067323622999936,0</coordinates>
      </Point>
    </Placemark>
    <Placemark>
      <name>PL-82</name>
      <description><![CDATA[Capa: LAREDO<br/>Duplicado de: PL-83<br/>Distancia entre ambos: 17.4m]]></description>
      <styleUrl>#style_problematicas_duplicadas</styleUrl>
      <Point>
        <coordinates>-78.95050352758841,-8.07163010704232,0</coordinates>
      </Point>
    </Placemark>
    <Placemark>
      <name>PVL-4</name>
      <description><![CDATA[Capa: DATA SET Victor Larco.csv Events<br/>Duplicado de: PVL-SC2<br/>Distancia entre ambos: 15.2m]]></description>
      <styleUrl>#style_problematicas_duplicadas</styleUrl>
      <Point>
        <coordinates>-79.0572426852635,-8.141083515498957,0</coordinates>
      </Point>
    </Placemark>
    <Placemark>
      <name>PE-63</name>
      <description><![CDATA[Capa: Consolidado<br/>Duplicado de: PE-195<br/>Distancia entre ambos: 15.8m]]></description>
      <styleUrl>#style_problematicas_duplicadas</styleUrl>
      <Point>
        <coordinates>-79.04575683199994,-8.070545866999964,0</coordinates>
      </Point>
    </Placemark>
    <Placemark>
      <name>PE-65</name>
      <description><![CDATA[Capa: Consolidado<br/>Duplicado de: PE-178<br/>Distancia entre ambos: 18.6m]]></description>
      <styleUrl>#style_problematicas_duplicadas</styleUrl>
      <Point>
        <coordinates>-79.04317728299998,-8.075377535999962,0</coordinates>
      </Point>
    </Placemark>
    <Placemark>
      <name>PM-29</name>
      <description><![CDATA[Capa: Moche<br/>Duplicado de: PM-68<br/>Distancia entre ambos: 14.7m]]></description>
      <styleUrl>#style_problematicas_duplicadas</styleUrl>
      <Point>
        <coordinates>-79.01033100592541,-8.149550710080813,0</coordinates>
      </Point>
    </Placemark>
    <Placemark>
      <name>PP-89</name>
      <description><![CDATA[Capa: Consolidado<br/>Duplicado de: PP-21<br/>Distancia entre ambos: 12.2m]]></description>
      <styleUrl>#style_problematicas_duplicadas</styleUrl>
      <Point>
        <coordinates>-79.00646339299999,-8.079820696999946,0</coordinates>
      </Point>
    </Placemark>
    <Placemark>
      <name>PVL-SC2</name>
      <description><![CDATA[Capa: DATA SET Victor Larco.csv Events<br/>Duplicado de: PVL-4<br/>Distancia entre ambos: 15.2m]]></description>
      <styleUrl>#style_problematicas_duplicadas</styleUrl>
      <Point>
        <coordinates>-79.05714143017637,-8.14117678046526,0</coordinates>
      </Point>
    </Placemark>
    <Placemark>
      <name>PM-68</name>
      <description><![CDATA[Capa: Moche<br/>Duplicado de: PM-29<br/>Distancia entre ambos: 14.7m]]></description>
      <styleUrl>#style_problematicas_duplicadas</styleUrl>
      <Point>
        <coordinates>-79.01037665684365,-8.149675951281537,0</coordinates>
      </Point>
    </Placemark>
    <Placemark>
      <name>PE-85</name>
      <description><![CDATA[Capa: Consolidado<br/>Duplicado de: PE-222<br/>Distancia entre ambos: 12.8m]]></description>
      <styleUrl>#style_problematicas_duplicadas</styleUrl>
      <Point>
        <coordinates>-79.05267559199996,-8.075376138999957,0</coordinates>
      </Point>
    </Placemark>
    <Placemark>
      <name>AMN-16</name>
      <description><![CDATA[Capa: Puntos_Paraderos<br/>Duplicado de: PE-245<br/>Distancia entre ambos: 19.5m]]></description>
      <styleUrl>#style_problematicas_duplicadas</styleUrl>
      <Point>
        <coordinates>-79.01385795439307,-8.099488975250042,0</coordinates>
      </Point>
    </Placemark>
    <Placemark>
      <name>PL-83</name>
      <description><![CDATA[Capa: LAREDO<br/>Duplicado de: PL-82<br/>Distancia entre ambos: 17.4m]]></description>
      <styleUrl>#style_problematicas_duplicadas</styleUrl>
      <Point>
        <coordinates>-78.95036838607054,-8.071549318426008,0</coordinates>
      </Point>
    </Placemark>
    <Placemark>
      <name>PE-92</name>
      <description><![CDATA[Capa: Consolidado<br/>Duplicado de: PE-210<br/>Distancia entre ambos: 17.9m]]></description>
      <styleUrl>#style_problematicas_duplicadas</styleUrl>
      <Point>
        <coordinates>-79.06062198299998,-8.067484390999937,0</coordinates>
      </Point>
    </Placemark>
    <Placemark>
      <name>PE-178</name>
      <description><![CDATA[Capa: Consolidado<br/>Duplicado de: PE-65<br/>Distancia entre ambos: 18.6m]]></description>
      <styleUrl>#style_problematicas_duplicadas</styleUrl>
      <Point>
        <coordinates>-79.04312774399995,-8.075538562999952,0</coordinates>
      </Point>
    </Placemark>
    <Placemark>
      <name>PE-183</name>
      <description><![CDATA[Capa: Consolidado<br/>Duplicado de: PE-54<br/>Distancia entre ambos: 14.5m]]></description>
      <styleUrl>#style_problematicas_duplicadas</styleUrl>
      <Point>
        <coordinates>-79.04719338199999,-8.069628382999952,0</coordinates>
      </Point>
    </Placemark>
    <Placemark>
      <name>Carretera Panamericana Norte</name>
      <description><![CDATA[Capa: <br/>Duplicado de: Carretera Panamericana Norte<br/>Distancia entre ambos: 19.9m]]></description>
      <styleUrl>#style_problematicas_duplicadas</styleUrl>
      <Point>
        <coordinates>-79.075065,-7.9920742,0</coordinates>
      </Point>
    </Placemark>
    <Placemark>
      <name>Carretera Panamericana Norte</name>
      <description><![CDATA[Capa: <br/>Duplicado de: Carretera Panamericana Norte<br/>Distancia entre ambos: 19.9m]]></description>
      <styleUrl>#style_problematicas_duplicadas</styleUrl>
      <Point>
        <coordinates>-79.0749009,-7.9919999,0</coordinates>
      </Point>
    </Placemark>
    <Placemark>
      <name>PE-95</name>
      <description><![CDATA[Capa: Consolidado<br/>Duplicado de: PE-215<br/>Distancia entre ambos: 12.7m]]></description>
      <styleUrl>#style_problematicas_duplicadas</styleUrl>
      <Point>
        <coordinates>-79.05973471899995,-8.074650584999972,0</coordinates>
      </Point>
    </Placemark>
    <Placemark>
      <name>PFM-13</name>
      <description><![CDATA[Capa: Consolidado<br/>Duplicado de: PFM-14<br/>Distancia entre ambos: 10.4m]]></description>
      <styleUrl>#style_problematicas_duplicadas</styleUrl>
      <Point>
        <coordinates>-79.02388619299995,-8.08592111799993,0</coordinates>
      </Point>
    </Placemark>
    <Placemark>
      <name>PFM-14</name>
      <description><![CDATA[Capa: Consolidado<br/>Duplicado de: PFM-13<br/>Distancia entre ambos: 10.4m]]></description>
      <styleUrl>#style_problematicas_duplicadas</styleUrl>
      <Point>
        <coordinates>-79.02392697199997,-8.085836173999951,0</coordinates>
      </Point>
    </Placemark>
    <Placemark>
      <name>PE-195</name>
      <description><![CDATA[Capa: Consolidado<br/>Duplicado de: PE-63<br/>Distancia entre ambos: 15.8m]]></description>
      <styleUrl>#style_problematicas_duplicadas</styleUrl>
      <Point>
        <coordinates>-79.04586833699994,-8.070455967999976,0</coordinates>
      </Point>
    </Placemark>
    <Placemark>
      <name>Avenida Libertad</name>
      <description><![CDATA[Capa: <br/>Duplicado de: Avenida Libertad<br/>Distancia entre ambos: 7.3m]]></description>
      <styleUrl>#style_problematicas_duplicadas</styleUrl>
      <Point>
        <coordinates>-79.057299,-8.1385614,0</coordinates>
      </Point>
    </Placemark>
    <Placemark>
      <name>Avenida Libertad</name>
      <description><![CDATA[Capa: <br/>Duplicado de: Avenida Libertad<br/>Distancia entre ambos: 7.3m]]></description>
      <styleUrl>#style_problematicas_duplicadas</styleUrl>
      <Point>
        <coordinates>-79.0572438,-8.1385973,0</coordinates>
      </Point>
    </Placemark>
    <Placemark>
      <name>PP-120</name>
      <description><![CDATA[Capa: Consolidado<br/>Duplicado de: PP-31<br/>Distancia entre ambos: 10.5m]]></description>
      <styleUrl>#style_problematicas_duplicadas</styleUrl>
      <Point>
        <coordinates>-78.99992555999995,-8.077916579999965,0</coordinates>
      </Point>
    </Placemark>
    <Placemark>
      <name>PL-18</name>
      <description><![CDATA[Capa: LAREDO<br/>Duplicado de: PL-40<br/>Distancia entre ambos: 18.3m]]></description>
      <styleUrl>#style_problematicas_duplicadas</styleUrl>
      <Point>
        <coordinates>-78.95438871031446,-8.082394045283031,0</coordinates>
      </Point>
    </Placemark>
    <Placemark>
      <name>PP-130</name>
      <description><![CDATA[Capa: Consolidado<br/>Duplicado de: PP-131<br/>Distancia entre ambos: 17.2m]]></description>
      <styleUrl>#style_problematicas_duplicadas</styleUrl>
      <Point>
        <coordinates>-79.01066110499994,-8.07470197799995,0</coordinates>
      </Point>
    </Placemark>
    <Placemark>
      <name>PP-131</name>
      <description><![CDATA[Capa: Consolidado<br/>Duplicado de: PP-130<br/>Distancia entre ambos: 17.2m]]></description>
      <styleUrl>#style_problematicas_duplicadas</styleUrl>
      <Point>
        <coordinates>-79.01050869999995,-8.074734576999958,0</coordinates>
      </Point>
    </Placemark>
</Document>
</kml>